GPS BIIA-23 (PRN 18)    
1 22877U 93068A   19206.24807939 -.00000052  00000-0  00000+0 0  9999
2 22877  54.7121  67.0010 0153797  80.7890 110.8226  2.00562399188638
GPS BIIR-2  (PRN 13)    
1 24876U 97035A   19207.37290274  .00000099  00000-0  00000+0 0  9991
2 24876  55.4615 196.9342 0033572  69.7270 290.6441  2.00564312161254
GPS BIIR-3  (PRN 11)    
1 25933U 99055A   19208.27069169 -.00000050  00000-0  00000+0 0  9995
2 25933  52.1481  44.0955 0165290 110.0726 104.0216  2.00558086145099
GPS BIIR-4  (PRN 20)    
1 26360U 00025A   19207.59284638 -.00000023  00000-0  00000-0 0  9994
2 26360  53.3538 122.7963 0044677 139.0643 352.7942  2.00569450140772
GPS BIIR-5  (PRN 28)    
1 26407U 00040A   19206.46936053 -.00000060  00000-0  00000-0 0  9994
2 26407  56.2321 315.0889 0192541 276.0375  97.3304  2.00560439139420
GPS BIIR-6  (PRN 14)    
1 26605U 00071A   19207.81753845  .00000095  00000-0  00000-0 0  9991
2 26605  55.0362 194.3488 0110079 249.7230 288.9488  2.00557241137053
GPS BIIR-8  (PRN 16)    
1 27663U 03005A   19206.35826845 -.00000060  00000-0  00000-0 0  9998
2 27663  56.2917 314.8682 0106231  32.4398  24.2673  2.00571522120786
GPS BIIR-9  (PRN 21)    
1 27704U 03010A   19206.58884130 -.00000051  00000-0  00000-0 0  9996
2 27704  54.3893  66.4447 0247138 278.2666 266.0531  2.00561145119588
GPS BIIR-10 (PRN 22)    
1 28129U 03058A   19207.07038563 -.00000018  00000-0  00000-0 0  9999
2 28129  53.1658 125.5954 0073031 284.5879  74.6129  2.00554186114297
GPS BIIR-11 (PRN 19)    
1 28190U 04009A   19207.31110421 -.00000054  00000-0  00000-0 0  9995
2 28190  56.2751  15.6033 0093506  83.5860  93.4752  2.00567796112476
GPS BIIR-12 (PRN 23)    
1 28361U 04023A   19207.18054032  .00000088  00000-0  00000-0 0  9997
2 28361  54.0528 188.7016 0134378 232.3371 125.9239  2.00549881110554
GPS BIIR-13 (PRN 02)    
1 28474U 04045A   19207.73893681 -.00000044  00000-0  00000-0 0  9991
2 28474  54.7452  66.1634 0191405 261.1776 137.3086  2.00554340107931
GPS BIIRM-1 (PRN 17)    
1 28874U 05038A   19206.54539781 -.00000057  00000-0  00000-0 0  9998
2 28874  56.3951  12.9903 0131112 262.0182  99.0616  2.00552638101312
GPS BIIRM-2 (PRN 31)    
1 29486U 06042A   19205.65238304  .00000042  00000-0  00000-0 0  9995
2 29486  54.9828 251.5399 0092304 359.2092   3.4901  2.00565672 94013
GPS BIIRM-3 (PRN 12)    
1 29601U 06052A   19208.08862778 -.00000054  00000-0  00000+0 0  9996
2 29601  56.2714 313.7170 0073304  62.4711 298.2990  2.00571863 92973
GPS BIIRM-4 (PRN 15)    
1 32260U 07047A   19207.90374311  .00000078  00000-0  00000+0 0  9992
2 32260  53.1759 184.3253 0113462  44.4685 316.4279  2.00556663 86345
GPS BIIRM-5 (PRN 29)    
1 32384U 07062A   19207.21464957 -.00000054  00000-0  00000-0 0  9992
2 32384  56.4808  13.6075 0009920 110.9308 246.1344  2.00558739 85069
GPS BIIRM-6 (PRN 07)    
1 32711U 08012A   19206.81435433  .00000056  00000-0  00000-0 0  9995
2 32711  54.7231 250.6742 0131950 220.6708 138.4120  2.00555736 83247
GPS BIIRM-8 (PRN 05)    
1 35752U 09043A   19208.01208009 -.00000017  00000-0  00000+0 0  9996
2 35752  54.4446 128.2833 0056453  40.9193 129.5952  2.00556237 72852
GPS BIIF-1  (PRN 25)    
1 36585U 10022A   19207.13622448 -.00000054  00000-0  00000+0 0  9990
2 36585  55.5503 310.0265 0082129  50.8612 309.9818  2.00562684 67085
GPS BIIF-2  (PRN 01)    
1 37753U 11036A   19208.26437955 -.00000038  00000-0  00000+0 0  9998
2 37753  55.9431  70.1521 0088994  41.3721 142.5392  2.00566693 58798
GPS BIIF-3  (PRN 24)    
1 38833U 12053A   19207.50022935  .00000068  00000-0  00000+0 0  9994
2 38833  53.7592 246.8096 0082984  33.1772 327.4171  2.00559207 49836
GPS BIIF-4  (PRN 27)    
1 39166U 13023A   19207.85633251 -.00000056  00000-0  00000+0 0  9997
2 39166  56.0746   9.6999 0070561  27.9492 332.4496  2.00567067 45383
GPS BIIF-5  (PRN 30)    
1 39533U 14008A   19207.85306704  .00000062  00000-0  00000+0 0  9995
2 39533  53.8878 252.1949 0042322 195.4143 164.5355  2.00551188 39748
GPS BIIF-6  (PRN 06)    
1 39741U 14026A   19207.13740194 -.00000045  00000-0  00000+0 0  9994
2 39741  55.9214  69.7224 0016120 294.1952  65.7070  2.00569611 38011
GPS BIIF-7  (PRN 09)    
1 40105U 14045A   19207.23021399  .00000090  00000-0  00000+0 0  9990
2 40105  54.5794 189.0254 0010077 100.2584 259.8544  2.00568251 36465
GPS BIIF-8  (PRN 03)    
1 40294U 14068A   19207.59881722 -.00000012  00000-0  00000+0 0  9992
2 40294  55.1962 129.8857 0022447  33.2329 326.9108  2.00555295 34694
GPS BIIF-9  (PRN 26)    
1 40534U 15013A   19206.73909485 -.00000054  00000-0  00000+0 0  9998
2 40534  54.4766 308.3433 0037250   5.3208 354.7539  2.00567239 31744
GPS BIIF-10  (PRN 08)   
1 40730U 15033A   19207.40232845 -.00000059  00000-0  00000+0 0  9997
2 40730  55.5985   9.0404 0044516 345.4883  14.4050  2.00552311 29515
GPS BIIF-11  (PRN 10)   
1 41019U 15062A   19206.94825674 -.00000010  00000-0  00000+0 0  9993
2 41019  55.1972 129.7280 0047790 207.2806 152.4731  2.00564632 27322
GPS BIIF-12  (PRN 32)   
1 41328U 16007A   19208.03827536  .00000088  00000-0  00000+0 0  9991
2 41328  54.8222 189.3932 0033561 220.9772 138.7694  2.00570758 25408
